[{"OBJECT_NAME":"STARLINK-33709","OBJECT_ID":"2025-065W","EPOCH":"2026-03-09T03:32:28.744224","MEAN_MOTION":15.27595604,"ECCENTRICITY":0.00012134,"INCLINATION":42.9977,"RA_OF_ASC_NODE":110.3793,"ARG_OF_PERICENTER":265.0851,"MEAN_ANOMALY":94.9862,"EPHEMERIS_TYPE":0,"CLASSIFICATION_TYPE":"U","NORAD_CAT_ID":63419,"ELEMENT_SET_NO":999,"REV_AT_EPOCH":5275,"BSTAR":0.0015197217,"MEAN_MOTION_DOT":0.00041815,"MEAN_MOTION_DDOT":0},{"OBJECT_NAME":"COSMOS 546","OBJECT_ID":"1973-005A","EPOCH":"2026-03-09T21:40:39.247392","MEAN_MOTION":15.29707303,"ECCENTRICITY":0.00147738,"INCLINATION":50.6327,"RA_OF_ASC_NODE":289.914,"ARG_OF_PERICENTER":261.1516,"MEAN_ANOMALY":98.7778,"EPHEMERIS_TYPE":0,"CLASSIFICATION_TYPE":"U","NORAD_CAT_ID":6350,"ELEMENT_SET_NO":999,"REV_AT_EPOCH":92802,"BSTAR":9.142057e-5,"MEAN_MOTION_DOT":2.316e-5,"MEAN_MOTION_DDOT":0}]
